#aV2021  9 29  0  0  0.00000000     288 DD+AD WGS84 FIT  NGA
## 2177 259200.00000000   300.00000000 59486 0.0000000000000
+   32     1  2  3  4  5  6  7  8  9 10 11 12 13 14 15 16 17
+         18 19 20 21 22 23 24 25 26 27 28 29 30 31 32  0  0
+          0  0  0  0  0  0  0  0  0  0  0  0  0  0  0  0  0
+          0  0  0  0  0  0  0  0  0  0  0  0  0  0  0  0  0
+          0  0  0  0  0  0  0  0  0  0  0  0  0  0  0  0  0
++         2  2  2  2  2  2  2  2  2  2  2  2  2  2  2  2  2
++         2  2  2  2  2  2  2  2  2  2  2  2  2  2  2  0  0
++         0  0  0  0  0  0  0  0  0  0  0  0  0  0  0  0  0
++         0  0  0  0  0  0  0  0  0  0  0  0  0  0  0  0  0
++         0  0  0  0  0  0  0  0  0  0  0  0  0  0  0  0  0
%c cc cc ccc ccc cccc cccc cccc cccc ccccc ccccc ccccc ccccc
%c cc cc ccc ccc cccc cccc cccc cccc ccccc ccccc ccccc ccccc
%f  0.0000000  0.000000000  0.00000000000  0.000000000000000
%f  0.0000000  0.000000000  0.00000000000  0.000000000000000
%i    0    0    0    0      0      0      0      0         0
%i    0    0    0    0      0      0      0      0         0
/*      NGA, ST. LOUIS,MO.                                  
/*   EPHEMERIS COMPUTED FROM 2 DAYS OF DATA                 
/*   EPOCHA v7 SMOOTHER                                     
/*   G2139 IERS2010 SATIGS SATAPC                           
*  2021  9 29 12 35  0.00000000
P  1  21126.717946  14298.632382  -8265.390559    553.688265                    
V  1  -9867.554449  -2246.401916 -29784.919545     -0.109448                    
P  2   -142.619412 -15917.369860  21910.396386   -634.906278                    
V  2  25295.776454   7149.325893   5603.899259     -0.019738                    
P  3  12329.109979  19311.630925  13420.772376   -306.564485                    
V  3    737.373631  17249.502347 -25199.353580     -0.137602                    
P  4  13907.837030   8038.445323  21165.828195   -204.110174                    
V  4 -21076.799695  16655.801151   7457.939078      0.002425                    
P  5  -5981.466513 -25763.668691  -1277.597887    -56.002099                    
V  5   2723.530791  -1994.062520  31730.368153     -0.012616                    
P  6  14175.167209  -9145.415637  20588.925742     84.070392                    
V  6  23907.798219  10056.579418 -11973.653501      0.077574                    
P  7  25485.516080   5470.204492  -5945.257682    253.889874                    
V  7   6410.792626   5366.584430  30028.168920      0.066788                    
P  8   3653.135943  15830.766708 -20960.296881    -38.247140                    
V  8 -20983.848021  16439.013172   9070.132869     -0.014088                    
P  9  21134.935617  -3154.150871  15720.617983   -361.503489                    
V  9 -14065.078132  14506.910349  21697.499367     -0.002888                    
P 10 -12491.352323  10954.611109 -20535.664573   -213.322265                    
V 10  -5159.194267 -25900.244576 -10894.492041     -0.079840                    
P 11   1996.856830 -15545.375054  21432.243865     20.162961                    
V 11  25011.002407  10807.455939   5492.509072      0.013021                    
P 12 -10391.100949 -20868.910996  12598.772421   -104.314937                    
V 12    620.236913 -16442.267282 -26074.759865     -0.054648                    
P 13   5271.363111 -18226.106874 -18669.754220    192.362211                    
V 13  20750.704012 -10986.539953  16861.647973      0.054437                    
P 14  13191.666194 -10937.224673 -20279.622941     -8.734120                    
V 14   3992.795857  25494.589943 -11205.448438     -0.078579                    
P 15  -6396.044718 -15680.578942 -20788.567137   -117.614651                    
V 15  18696.883387 -17680.535632   8072.507159      0.027521                    
P 16     21.836663  26169.263269   2473.209573   -398.707042                    
V 16  -3086.429813  -3286.591501  32094.295672     -0.063540                    
P 17  22754.267424 -13025.832427  -3840.908702    511.818348                    
V 17  -3148.686617   4907.447597 -31705.274543      0.056218                    
P 18 -24950.734054  -4041.645996  -8324.855810    316.645047                    
V 18  -8871.826630  -6095.242914  29494.351723     -0.046861                    
P 19  20245.088245 -16449.379340   4241.067441     59.280220                    
V 19   6088.873540  -1147.926550 -31677.413991      0.049805                    
P 20    186.982657 -24581.461819  10360.954399    518.892681                    
V 20   6686.768825  11677.514236  27247.299118     -0.001970                    
P 21  16081.017972  15303.845560 -14286.689234    145.165687                    
V 21 -18904.810913  -3572.901553 -23424.223175      0.018904                    
P 22  10970.303948  23550.202461   6195.368395   -501.462047                    
V 22  -1176.998625   8207.537581 -29745.558225      0.092304                    
P 23 -15494.861972  -1870.837667 -21523.750981     51.378847                    
V 23  -4523.534746 -26873.531387   5524.525646     -0.047802                    
P 24 -18514.491808 -15094.503172 -12294.647847    244.603189                    
V 24  15216.062681   1882.621648 -25376.931264      0.073681                    
P 25 -15016.490755 -11374.330709  18569.091362    216.241431                    
V 25  -2431.754692 -23951.831087 -16142.502563      0.062157                    
P 26  -6496.288991  21067.935230  14545.396332    139.495476                    
V 26  -6489.536339 -17797.262053  23068.714874      0.041110                    
P 27  -6711.663494  19734.030946 -16418.727810   -199.527412                    
V 27 -17147.471731  11599.034640  21543.014564     -0.051497                    
P 28  10177.399614 -17788.019221 -16459.540117    492.023658                    
V 28   3018.967954  21696.937693 -20702.462389     -0.071936                    
P 29 -19639.086870   -864.627303  17847.871415   -418.911318                    
V 29  17952.280299 -13900.547652  18969.665624     -0.055757                    
P 30  21143.441763  -3792.308275 -15700.221024   -477.617835                    
V 30  17659.197184   9748.023024  21094.444487     -0.036630                    
P 31 -12828.003129  10537.969581  20727.380867   -142.313776                    
V 31 -24198.756632 -10727.632255  -9015.123414     -0.020072                    
P 32 -20969.055772  16089.313146  -1202.582757     -5.052128                    
V 32   -652.125375  -3434.879203 -31756.403728     -0.037458                    
EOF
